NUSAT-1 (FRESCO)        
1 41557U 16033B   21319.81960741  .00003250  00000+0  11265-3 0  9994
2 41557  97.3927  52.9907 0013881  61.4014  55.4257 15.30471203304674
BEESAT-4                
1 41619U 16040W   21319.67458455  .00003432  00000+0  13364-3 0  9993
2 41619  97.2511  11.4549 0011225 148.8605 211.3302 15.26588053288075
CAS-2T & KS-1Q          
1 41847U 16066G   21319.44278263  .00000218  00000+0  42046-4 0  9995
2 41847  98.5831  19.0606 0365840 129.4878 233.9273 14.38283995263582
NAYIF-1 (EO-88)         
1 42017U 17008BX  21319.44209522  .00003571  00000+0  12791-3 0  9992
2 42017  97.3004  24.2990 0004242 299.7070  60.3748 15.29388998264328
ZHUHAI-1 02 (CAS-4B)    
1 42759U 17034B   21319.81570698  .00000872  00000+0  65174-4 0  9995
2 42759  43.0171  68.7751 0007726  21.2493 120.8182 15.10539859244033
ZHUHAI-1 01 (CAS-4A)    
1 42761U 17034D   21319.79696159  .00000870  00000+0  64963-4 0  9999
2 42761  43.0177  67.8196 0008201  23.2831 113.5658 15.10626660244036
MAX VALIER SAT          
1 42778U 17036P   21319.65794653  .00001996  00000+0  84406-4 0  9996
2 42778  97.2375   3.2130 0011732  11.6118 348.5388 15.24293033244319
RADFXSAT (FOX-1B)       
1 43017U 17073E   21319.60419456  .00000871  00000+0  71586-4 0  9990
2 43017  97.6925 217.5024 0253854 166.7023 194.1051 14.79946113215473
FOX-1D (AO-92)          
1 43137U 18004AC  21319.45366671  .00002445  00000+0  97643-4 0  9992
2 43137  97.3943  31.8922 0009602  46.8077 313.3962 15.26061535213680
DIWATA-2B               
1 43678U 18084H   21319.77468691  .00000085  00000+0  14231-4 0  9990
2 43678  97.9434  86.0179 0008392 271.9592  88.0682 14.91830395165999
ES'HAIL 2               
1 43700U 18090A   21319.72304334  .00000147  00000+0  00000+0 0  9994
2 43700   0.0156 277.7991 0002345 335.6925  87.6453  1.00272234 11137
FOX-1CLIFF (AO-95)      
1 43770U 18099N   21319.47162133  .00001105  00000+0  10467-3 0  9998
2 43770  97.6500  26.2110 0012873 272.3815  87.5932 14.95542066161027
ITASAT 1                
1 43786U 18099AE  21319.42928194  .00000246  00000+0  27139-4 0  9997
2 43786  97.6524  26.9527 0013574 265.4426  94.5245 14.95808720161059
JY1SAT (JO-97)          
1 43803U 18099AX  21319.43325626  .00000239  00000+0  26293-4 0  9991
2 43803  97.6486  26.6952 0013579 265.0210  94.9461 14.96100947161069
UWE-4                   
1 43880U 18111E   21319.51569581  .00000241  00000+0  25868-4 0  9990
2 43880  97.6772 224.5887 0011470 324.9609  35.0858 14.97122920157688
NEXUS (FO-99)           
1 43937U 19003F   21319.84712299  .00003123  00000+0  12081-3 0  9990
2 43937  97.1599 356.8976 0022223 190.7814 169.2953 15.26701334157351
PSAT2 (NO-104)          
1 44354U 19036R   21319.76088623  .00026237  00000+0  32011-3 0  9994
2 44354  28.5246 194.1931 0301040 123.0786 239.9088 15.20074379131958
BRICSAT2 (NO-103)       
1 44355U 19036S   21319.79668423  .00055961 -58248-5  46681-3 0  9998
2 44355  28.5249 118.7309 0207719 246.1234 111.7473 15.45063941132716
JAISAT-1                
1 44419U 19038F   21319.32439351  .00002013  00000+0  11269-3 0  9996
2 44419  97.6089 283.6829 0021537 147.7027 212.5528 15.14433819130623
DUCHIFAT-3              
1 44854U 19089C   21319.93822281  .00001099  00000+0  93455-4 0  9991
2 44854  36.9654 284.6226 0009057 288.0758  71.9025 14.99794494105852
CAS-6 (TO-108)          
1 44881U 19093C   21319.75986754  .00000151  00000+0  26030-4 0  9995
2 44881  97.9138  36.8564 0015511 156.0609 204.1326 14.81510025103139
RS-44 & BREEZE-KM R/B   
1 44909U 19096E   21319.59777290  .00000018  00000+0  17666-4 0  9991
2 44909  82.5246  12.3829 0218518  99.7342 262.8512 12.79711206 88153
ORBITAL FACTORY 2 (OF-2)
1 45113U 19071C   21319.56268121  .00004413  00000+0  12826-3 0  9992
2 45113  51.6427  24.0650 0011453 116.6418 243.5740 15.37537876100401
HUSKYSAT-1 (HO-107)     
1 45119U 19071J   21319.25184290  .00004710  00000+0  13670-3 0  9996
2 45119  51.6428  24.9790 0011002 112.3361 247.8790 15.37419663100351
BY70-2                  
1 45857U 20042B   21319.75988776  .00001851  00000+0  26615-3 0  9997
2 45857  97.9744  33.9051 0012295  89.4915 270.7686 14.77566063 73884
SALSAT                  
1 46495U 20068K   21319.59879718 -.00000167  00000+0 -76413-5 0  9995
2 46495  97.7049 256.2946 0015219 284.3465  75.6070 15.03658793 62044
BY70-3                  
1 46839U 20079N   21319.88954597  .00004955  00000+0  14711-3 0  9998
2 46839  97.2268  30.7499 0007835  34.7352  85.2867 15.35222279 57427
RADFXSAT-2 (AO-109)     
1 47311U 21002C   21319.59013765  .00002518  00000+0  11813-3 0  9995
2 47311  60.6855  85.1624 0037343 124.6721 235.7894 15.22397142 45875
UVSQ-SAT                
1 47438U 21006AB  21319.73220519  .00001493  00000+0  86628-4 0  9990
2 47438  97.4697  18.1348 0011155 299.0255  60.9858 15.13630176 44939
DIY-1 (ARDUIQUBE)       
1 47963U 21022AH  21319.41687824  .00003720  00000+0  24257-3 0  9996
2 47963  97.5451 219.0458 0019700 144.0516 216.2042 15.08342065 34647
